H-2A R/B                
1 28932U 06002B   26201.40253226  .00004970  00000+0  23685-3 0  9993
2 28932  98.2604   0.2536 0051079 148.4490 211.9822 15.18495036114567
RESURS-DK 1             
1 29228U 06021A   26201.41611342  .00000982  00000+0  61107-4 0  9992
2 29228  69.9301 253.5278 0007419 265.4127  94.6192 15.13330043107601
CZ-4B R/B               
1 29507U 06046C   26201.08225527  .00002426  00000+0  12110-3 0  9992
2 29507  97.5432 245.5886 0033064 165.2595 194.9610 15.18003768 80122
CZ-2C R/B               
1 31114U 07010B   26201.52292556  .00000042  00000+0  38526-4 0  9998
2 31114  98.4120 308.2474 0057750 267.9505  91.5058 14.20282659998577
COSMO-SKYMED 1          
1 31598U 07023A   26201.61872551  .00001904  00000+0  16970-3 0  9993
2 31598  97.8854  33.7580 0001786  97.0225 263.1200 14.97238293 34797
COSMOS 2428             
1 31792U 07029A   26201.34693242  .00000301  00000+0  18726-3 0  9994
2 31792  70.9382 284.8556 0007281  71.0537 289.1373 14.12937952982838
SL-16 R/B               
1 31793U 07029B   26201.34349730  .00000302  00000+0  18138-3 0  9993
2 31793  70.9741 253.5303 0001908 258.3485 189.0533 14.14854817984134
KORONAS-FOTON           
1 33504U 09003A   26201.53999209  .00008762  00000+0  17610-3 0  9994
2 33504  82.4307 137.4515 0011705  45.6385 314.5821 15.46383325966254
CZ-2C R/B               
1 37731U 11030B   26201.35690116  .00000491  00000+0  68194-4 0  9993
2 37731  97.8673 156.1500 0050680 278.8800 242.1368 14.81537873809733
H-2A R/B                
1 38341U 12025E   26201.40360220  .00001039  00000+0  97612-4 0  9998
2 38341  98.4848 179.2952 0042704 237.3570 122.3525 14.95846365768058
SHIJIAN-16 (SJ-16)      
1 39358U 13057A   26201.61817987  .00000969  00000+0  96568-4 0  9993
2 39358  74.9736 293.3636 0015581 151.7251 208.4787 14.92680019691338
SL-4 R/B                
1 39679U 14021B   26201.56342205  .00006310  00000+0  13288-3 0  9994
2 39679  51.6067  47.1835 0089413 228.2879 131.0433 15.42550134676769
ALOS-2                  
1 39766U 14029A   26201.61743488  .00000480  00000+0  71144-4 0  9991
2 39766  97.9226 298.3038 0001587  90.8051 269.3342 14.79473474656528
YAOGAN-29               
1 41038U 15069A   26201.57421913  .00000668  00000+0  88598-4 0  9991
2 41038  98.0018 230.2581 0000207  14.4980 345.6240 14.83110125575579
ASTRO-H (HITOMI)        
1 41337U 16012A   26201.27108818  .00001284  00000+0  70049-4 0  9992
2 41337  30.9974 220.4992 0009671 226.2972 133.6865 15.10644305572299
HXMT (HUIYAN)           
1 42758U 17034A   26201.61303297  .00002578  00000+0  13204-3 0  9997
2 42758  43.0152 356.8819 0031569 354.8700   5.1821 15.18715999502744
SAOCOM 1A               
1 43641U 18076A   26201.62129922  .00000503  00000+0  69692-4 0  9997
2 43641  97.8892  27.8838 0001467  87.2458 272.8923 14.82150759421058
H-2A R/B                
1 43682U 18084L   26201.59491553  .00012172  00000+0  24720-3 0  9996
2 43682  98.8522  87.8125 0020269 280.1764  79.7195 15.46329983426287
SAOCOM 1B               
1 46265U 20059A   26201.65250100 -.00000408  00000+0 -44666-4 0  9992
2 46265  97.8897  27.0111 0001469  84.8988 275.2393 14.82143060318440
CSS (TIANHE)            
1 48274U 21035A   26201.47071797  .00012149  00000+0  16027-3 0  9994
2 48274  41.4682 119.8551 0001861 306.8852  53.1815 15.58221898298360
COSMOS 2550             
1 48865U 21056A   26201.60622959  .00003250  00000+0  10446-3 0  9992
2 48865  67.1441 358.8141 0008541 269.4137  90.6039 15.33860985283846
CZ-2C R/B               
1 52794U 22058K   26201.42155585  .00027309  00000+0  28001-3 0  9994
2 52794  50.1861 350.2809 0030070  44.5445 315.7940 15.64135343230844
CZ-2C R/B               
1 54039U 22132E   26201.28416229  .00043555  00000+0  28756-3 0  9998
2 54039  97.2897 209.8860 0008622 317.4870  42.5727 15.75445426211156
GSLV R/B                
1 54149U 22138AN  26201.26574091  .00001600  00000+0  13446-3 0  9991
2 54149  87.3816 121.8768 0022933  35.3246 324.9499 14.97397371203762
XRISM                   
1 57800U 23137A   26201.18524264  .00002251  00000+0  11998-3 0  9999
2 57800  31.0011 145.8091 0007848 295.7303  64.2525 15.12690874157866
ACS3                    
1 59588U 24077B   26200.70021256  .00003608  00000+0  25000-2 0  9993
2 59588  97.1775 112.2879 0129376  31.3060 329.5729 13.95428126112578
SPACEMOBILE-003         
1 61045U 24163A   26201.14245972  .00001670  00000+0  89590-4 0  9995
2 61045  52.9674 157.8928 0004241 210.2897 149.7852 15.20721715102786
SPACEMOBILE-005         
1 61046U 24163B   26201.25732527  .00001252  00000+0  70891-4 0  9995
2 61046  52.9743 157.3189 0008669 211.7347 148.3126 15.20720640102798
SPACEMOBILE-001         
1 61047U 24163C   26201.25568385 -.00000135  00000+0  86599-5 0  9998
2 61047  52.9710 157.0335 0006953 209.4162 150.6442 15.20700764102798
SPACEMOBILE-002         
1 61048U 24163D   26200.18806198  .00010534  00000+0  48876-3 0  9994
2 61048  52.9793 161.9891 0004751 205.9492 154.1265 15.20578455102637
