OBJECT_NAME,OBJECT_ID,EPOCH,MEAN_MOTION,ECCENTRICITY,INCLINATION,RA_OF_ASC_NODE,ARG_OF_PERICENTER,MEAN_ANOMALY,EPHEMERIS_TYPE,CLASSIFICATION_TYPE,NORAD_CAT_ID,ELEMENT_SET_NO,REV_AT_EPOCH,BSTAR,MEAN_MOTION_DOT,MEAN_MOTION_DDOT
H-2A R/B,2006-002B,2026-07-20T09:39:38.787264,15.18495036,.00510791,98.2604,0.2536,148.4490,211.9822,0,U,28932,999,11456,.23684914E-3,.497E-4,0
RESURS-DK 1,2006-021A,2026-07-20T09:59:12.199488,15.13330043,.00074193,69.9301,253.5278,265.4127,94.6192,0,U,29228,999,10760,.61106831E-4,.982E-5,0
CZ-4B R/B,2006-046C,2026-07-20T01:58:26.855328,15.18003768,.0033064,97.5432,245.5886,165.2595,194.9610,0,U,29507,999,8012,.12110144E-3,.2426E-4,0
CZ-2C R/B,2007-010B,2026-07-20T12:33:00.768384,14.20282659,.00577503,98.4120,308.2474,267.9505,91.5058,0,U,31114,999,99857,.38525703E-4,.42E-6,0
COSMO-SKYMED 1,2007-023A,2026-07-20T14:50:57.884064,14.97238293,.00017869,97.8854,33.7580,97.0225,263.1200,0,U,31598,999,3479,.16969698E-3,.1904E-4,0
COSMOS 2428,2007-029A,2026-07-20T08:19:34.961088,14.12937952,.00072811,70.9382,284.8556,71.0537,289.1373,0,U,31792,999,98283,.18726273E-3,.301E-5,0
SL-16 R/B,2007-029B,2026-07-20T08:14:38.166720,14.14854817,.00019083,70.9741,253.5303,258.3485,189.0533,0,U,31793,999,98413,.18137657E-3,.302E-5,0
KORONAS-FOTON,2009-003A,2026-07-20T12:57:35.316576,15.46383325,.00117057,82.4307,137.4515,45.6385,314.5821,0,U,33504,999,96625,.17610087E-3,.8762E-4,0
CZ-2C R/B,2011-030B,2026-07-20T08:33:56.260224,14.81537873,.00506802,97.8673,156.1500,278.8800,242.1368,0,U,37731,999,80973,.68194369E-4,.491E-5,0
H-2A R/B,2012-025E,2026-07-20T09:41:11.230080,14.95846365,.00427042,98.4848,179.2952,237.3570,122.3525,0,U,38341,999,76805,.97611664E-4,.1039E-4,0
SHIJIAN-16 (SJ-16),2013-057A,2026-07-20T14:50:10.740768,14.92680019,.0015581,74.9736,293.3636,151.7251,208.4787,0,U,39358,999,69133,.9656823E-4,.969E-5,0
SL-4 R/B,2014-021B,2026-07-20T13:31:19.665120,15.42550134,.00894139,51.6067,47.1835,228.2879,131.0433,0,U,39679,999,67676,.13288245E-3,.631E-4,0
ALOS-2,2014-029A,2026-07-20T14:49:06.373632,14.79473474,.00015872,97.9226,298.3038,90.8051,269.3342,0,U,39766,999,65652,.71144347E-4,.48E-5,0
YAOGAN-29,2015-069A,2026-07-20T13:46:52.532832,14.83110125,.00002073,98.0018,230.2581,14.4980,345.6240,0,U,41038,999,57557,.88598292E-4,.668E-5,0
ASTRO-H (HITOMI),2016-012A,2026-07-20T06:30:22.018752,15.10644305,.00096717,30.9974,220.4992,226.2972,133.6865,0,U,41337,999,57229,.70049003E-4,.1284E-4,0
HXMT (HUIYAN),2017-034A,2026-07-20T14:42:46.048608,15.18715999,.00315696,43.0152,356.8819,354.8700,5.1821,0,U,42758,999,50274,.13203826E-3,.2578E-4,0
SAOCOM 1A,2018-076A,2026-07-20T14:54:40.252608,14.82150759,.00014678,97.8892,27.8838,87.2458,272.8923,0,U,43641,999,42105,.69691953E-4,.503E-5,0
H-2A R/B,2018-084L,2026-07-20T14:16:40.701792,15.46329983,.00202697,98.8522,87.8125,280.1764,79.7195,0,U,43682,999,42628,.24720332E-3,.12172E-3,0
SAOCOM 1B,2020-059A,2026-07-20T15:39:36.086400,14.82143060,.00014692,97.8897,27.0111,84.8988,275.2393,0,U,46265,999,31844,-.44665949E-4,-.408E-5,0
CSS (TIANHE),2021-035A,2026-07-20T11:17:50.032608,15.58221898,.00018614,41.4682,119.8551,306.8852,53.1815,0,U,48274,999,29836,.16026966E-3,.12149E-3,0
COSMOS 2550,2021-056A,2026-07-20T14:32:58.236576,15.33860985,.00085418,67.1441,358.8141,269.4137,90.6039,0,U,48865,999,28384,.10446123E-3,.325E-4,0
CZ-2C R/B,2022-058K,2026-07-20T10:07:02.425440,15.64135343,.00300707,50.1861,350.2809,44.5445,315.7940,0,U,52794,999,23084,.28001206E-3,.27309E-3,0
CZ-2C R/B,2022-132E,2026-07-20T06:49:11.621856,15.75445426,.00086225,97.2897,209.8860,317.4870,42.5727,0,U,54039,999,21115,.2875643E-3,.43555E-3,0
GSLV R/B,2022-138AN,2026-07-20T06:22:40.014624,14.97397371,.00229333,87.3816,121.8768,35.3246,324.9499,0,U,54149,999,20376,.1344607E-3,.16E-4,0
XRISM,2023-137A,2026-07-20T04:26:44.964096,15.12690874,.00078481,31.0011,145.8091,295.7303,64.2525,0,U,57800,999,15786,.11998334E-3,.2251E-4,0
ACS3,2024-077B,2026-07-19T16:48:18.365184,13.95428126,.01293761,97.1775,112.2879,31.3060,329.5729,0,U,59588,999,11257,.25000287E-2,.3608E-4,0
SPACEMOBILE-003,2024-163A,2026-07-20T03:25:08.519808,15.20721715,.0004241,52.9674,157.8928,210.2897,149.7852,0,U,61045,999,10278,.89590351E-4,.167E-4,0
SPACEMOBILE-005,2024-163B,2026-07-20T06:10:32.903328,15.20720640,.00086691,52.9743,157.3189,211.7347,148.3126,0,U,61046,999,10279,.70890635E-4,.1252E-4,0
SPACEMOBILE-001,2024-163C,2026-07-20T06:08:11.084640,15.20700764,.00069537,52.9710,157.0335,209.4162,150.6442,0,U,61047,999,10279,.8659876E-5,-.135E-5,0
SPACEMOBILE-002,2024-163D,2026-07-19T04:30:48.555072,15.20578455,.00047519,52.9793,161.9891,205.9492,154.1265,0,U,61048,999,10263,.48876039E-3,.10534E-3,0
